{"fetched_at":"2026-07-21T07:07:14.587Z","source":"https://celestrak.org/NORAD/elements/gp.php?NAME=SPOT&FORMAT=JSON","constellation":"spot","records":[{"OBJECT_NAME":"SPOT 6","OBJECT_ID":"2012-047A","EPOCH":"2026-07-20T22:48:13.942368","CLASSIFICATION_TYPE":"U","MEAN_MOTION":14.58539499,"ECCENTRICITY":0.0001127,"INCLINATION":98.2099,"RA_OF_ASC_NODE":268.8608,"ARG_OF_PERICENTER":92.6384,"MEAN_ANOMALY":267.4944,"EPHEMERIS_TYPE":0,"NORAD_CAT_ID":38755,"ELEMENT_SET_NO":999,"REV_AT_EPOCH":73797,"BSTAR":-0.000015955986,"MEAN_MOTION_DOT":-0.0000012,"MEAN_MOTION_DDOT":0},{"OBJECT_NAME":"SPOT 7","OBJECT_ID":"2014-034A","EPOCH":"2026-07-20T22:42:44.426592","CLASSIFICATION_TYPE":"U","MEAN_MOTION":14.60982879,"ECCENTRICITY":0.00016603,"INCLINATION":98.0607,"RA_OF_ASC_NODE":263.5653,"ARG_OF_PERICENTER":94.4247,"MEAN_ANOMALY":265.7143,"EPHEMERIS_TYPE":0,"NORAD_CAT_ID":40053,"ELEMENT_SET_NO":999,"REV_AT_EPOCH":64206,"BSTAR":0.000006242522,"MEAN_MOTION_DOT":-1.5e-7,"MEAN_MOTION_DDOT":0}]}
