SPOT 6                  
1 38755U 12047A   26201.95016137 -.00000120  00000+0 -15956-4 0  9999
2 38755  98.2099 268.8608 0001127  92.6384 267.4944 14.58539499737974
SPOT 7                  
1 40053U 14034A   26201.94634753 -.00000015  00000+0  62425-5 0  9996
2 40053  98.0607 263.5653 0001660  94.4247 265.7143 14.60982879642067
